[{"OBJECT_NAME":"EUTELSAT 9B","OBJECT_ID":"2016-005A","EPOCH":"2026-03-04T09:02:38.798880","MEAN_MOTION":1.0027471,"ECCENTRICITY":0.00042889,"INCLINATION":0.0258,"RA_OF_ASC_NODE":60.9038,"ARG_OF_PERICENTER":258.7516,"MEAN_ANOMALY":347.129,"EPHEMERIS_TYPE":0,"CLASSIFICATION_TYPE":"U","NORAD_CAT_ID":41310,"ELEMENT_SET_NO":999,"REV_AT_EPOCH":3706,"BSTAR":0,"MEAN_MOTION_DOT":5.0e-7,"MEAN_MOTION_DDOT":0},{"OBJECT_NAME":"EUTELSAT 65 WEST A","OBJECT_ID":"2016-014A","EPOCH":"2026-03-04T03:36:38.720160","MEAN_MOTION":1.00272377,"ECCENTRICITY":0.00022407,"INCLINATION":0.0706,"RA_OF_ASC_NODE":41.1938,"ARG_OF_PERICENTER":297.2475,"MEAN_ANOMALY":172.4239,"EPHEMERIS_TYPE":0,"CLASSIFICATION_TYPE":"U","NORAD_CAT_ID":41382,"ELEMENT_SET_NO":999,"REV_AT_EPOCH":3648,"BSTAR":0,"MEAN_MOTION_DOT":-2.89e-6,"MEAN_MOTION_DDOT":0},{"OBJECT_NAME":"EUTELSAT 117 WEST B","OBJECT_ID":"2016-038B","EPOCH":"2026-03-04T08:41:38.793120","MEAN_MOTION":1.00271881,"ECCENTRICITY":2.105e-5,"INCLINATION":0.0384,"RA_OF_ASC_NODE":342.0206,"ARG_OF_PERICENTER":243.213,"MEAN_ANOMALY":310.292,"EPHEMERIS_TYPE":0,"CLASSIFICATION_TYPE":"U","NORAD_CAT_ID":41589,"ELEMENT_SET_NO":999,"REV_AT_EPOCH":3561,"BSTAR":0,"MEAN_MOTION_DOT":-2.3e-7,"MEAN_MOTION_DDOT":0},{"OBJECT_NAME":"EUTELSAT 172B","OBJECT_ID":"2017-029B","EPOCH":"2026-03-04T14:36:38.883168","MEAN_MOTION":1.00272242,"ECCENTRICITY":1.34e-5,"INCLINATION":0.0195,"RA_OF_ASC_NODE":153.4153,"ARG_OF_PERICENTER":132.6433,"MEAN_ANOMALY":267.4342,"EPHEMERIS_TYPE":0,"CLASSIFICATION_TYPE":"U","NORAD_CAT_ID":42741,"ELEMENT_SET_NO":999,"REV_AT_EPOCH":3269,"BSTAR":0,"MEAN_MOTION_DOT":-1.7e-7,"MEAN_MOTION_DDOT":0},{"OBJECT_NAME":"EUTELSAT 7C","OBJECT_ID":"2019-034B","EPOCH":"2026-03-04T09:02:38.798880","MEAN_MOTION":1.00270313,"ECCENTRICITY":0.00032956,"INCLINATION":0.0721,"RA_OF_ASC_NODE":179.7683,"ARG_OF_PERICENTER":150.5272,"MEAN_ANOMALY":334.4562,"EPHEMERIS_TYPE":0,"CLASSIFICATION_TYPE":"U","NORAD_CAT_ID":44334,"ELEMENT_SET_NO":999,"REV_AT_EPOCH":578,"BSTAR":0,"MEAN_MOTION_DOT":3.6e-7,"MEAN_MOTION_DDOT":0},{"OBJECT_NAME":"EUTELSAT 5 WEST B","OBJECT_ID":"2019-067A","EPOCH":"2026-03-04T07:42:38.710368","MEAN_MOTION":1.00272617,"ECCENTRICITY":0.00031974,"INCLINATION":0.0952,"RA_OF_ASC_NODE":310.151,"ARG_OF_PERICENTER":41.8937,"MEAN_ANOMALY":280.6517,"EPHEMERIS_TYPE":0,"CLASSIFICATION_TYPE":"U","NORAD_CAT_ID":44624,"ELEMENT_SET_NO":999,"REV_AT_EPOCH":2338,"BSTAR":0,"MEAN_MOTION_DOT":-5.4e-7,"MEAN_MOTION_DDOT":0},{"OBJECT_NAME":"EUTELSAT KONNECT","OBJECT_ID":"2020-005B","EPOCH":"2026-03-04T09:02:38.798880","MEAN_MOTION":1.00271214,"ECCENTRICITY":0.00010457,"INCLINATION":0.0683,"RA_OF_ASC_NODE":97.6427,"ARG_OF_PERICENTER":224.8196,"MEAN_ANOMALY":342.5052,"EPHEMERIS_TYPE":0,"CLASSIFICATION_TYPE":"U","NORAD_CAT_ID":45027,"ELEMENT_SET_NO":999,"REV_AT_EPOCH":2328,"BSTAR":0,"MEAN_MOTION_DOT":3.7e-7,"MEAN_MOTION_DDOT":0},{"OBJECT_NAME":"EUTELSAT QUANTUM","OBJECT_ID":"2021-069B","EPOCH":"2026-03-04T07:10:38.707968","MEAN_MOTION":1.00272176,"ECCENTRICITY":0.00029099,"INCLINATION":0.0446,"RA_OF_ASC_NODE":310.855,"ARG_OF_PERICENTER":28.0604,"MEAN_ANOMALY":338.4798,"EPHEMERIS_TYPE":0,"CLASSIFICATION_TYPE":"U","NORAD_CAT_ID":49056,"ELEMENT_SET_NO":999,"REV_AT_EPOCH":1687,"BSTAR":0,"MEAN_MOTION_DOT":1.14e-6,"MEAN_MOTION_DDOT":0},{"OBJECT_NAME":"EUTELSAT KONNECT VHTS","OBJECT_ID":"2022-110A","EPOCH":"2026-03-04T09:10:38.507232","MEAN_MOTION":1.00279396,"ECCENTRICITY":0.00033039,"INCLINATION":0.057,"RA_OF_ASC_NODE":103.2636,"ARG_OF_PERICENTER":218.7695,"MEAN_ANOMALY":340.4535,"EPHEMERIS_TYPE":0,"CLASSIFICATION_TYPE":"U","NORAD_CAT_ID":53765,"ELEMENT_SET_NO":999,"REV_AT_EPOCH":578,"BSTAR":0,"MEAN_MOTION_DOT":7.0e-8,"MEAN_MOTION_DDOT":0},{"OBJECT_NAME":"EUTELSAT HOTBIRD 13F","OBJECT_ID":"2022-134A","EPOCH":"2026-03-04T17:41:15.857376","MEAN_MOTION":1.00271844,"ECCENTRICITY":0.0002058,"INCLINATION":0.0582,"RA_OF_ASC_NODE":295.6226,"ARG_OF_PERICENTER":63.0008,"MEAN_ANOMALY":82.1542,"EPHEMERIS_TYPE":0,"CLASSIFICATION_TYPE":"U","NORAD_CAT_ID":54048,"ELEMENT_SET_NO":999,"REV_AT_EPOCH":1232,"BSTAR":0,"MEAN_MOTION_DOT":7.6e-7,"MEAN_MOTION_DDOT":0},{"OBJECT_NAME":"EUTELSAT HOTBIRD 13G","OBJECT_ID":"2022-146A","EPOCH":"2026-03-04T17:41:15.845280","MEAN_MOTION":1.00272135,"ECCENTRICITY":0.0001916,"INCLINATION":0.0464,"RA_OF_ASC_NODE":229.1466,"ARG_OF_PERICENTER":313.2067,"MEAN_ANOMALY":258.432,"EPHEMERIS_TYPE":0,"CLASSIFICATION_TYPE":"U","NORAD_CAT_ID":54225,"ELEMENT_SET_NO":999,"REV_AT_EPOCH":641,"BSTAR":0,"MEAN_MOTION_DOT":7.7e-7,"MEAN_MOTION_DDOT":0},{"OBJECT_NAME":"EUTELSAT 10B","OBJECT_ID":"2022-157A","EPOCH":"2026-03-04T16:11:04.241760","MEAN_MOTION":1.00268517,"ECCENTRICITY":0.000137,"INCLINATION":0.0573,"RA_OF_ASC_NODE":102.262,"ARG_OF_PERICENTER":13.0814,"MEAN_ANOMALY":299.794,"EPHEMERIS_TYPE":0,"CLASSIFICATION_TYPE":"U","NORAD_CAT_ID":54259,"ELEMENT_SET_NO":999,"REV_AT_EPOCH":1197,"BSTAR":0,"MEAN_MOTION_DOT":5.7e-7,"MEAN_MOTION_DDOT":0},{"OBJECT_NAME":"EUTELSAT 36D","OBJECT_ID":"2024-059A","EPOCH":"2026-03-04T08:46:38.648640","MEAN_MOTION":1.00270962,"ECCENTRICITY":2.424e-5,"INCLINATION":0.0209,"RA_OF_ASC_NODE":138.5839,"ARG_OF_PERICENTER":198.5441,"MEAN_ANOMALY":352.4912,"EPHEMERIS_TYPE":0,"CLASSIFICATION_TYPE":"U","NORAD_CAT_ID":59346,"ELEMENT_SET_NO":999,"REV_AT_EPOCH":709,"BSTAR":0,"MEAN_MOTION_DOT":1.44e-6,"MEAN_MOTION_DDOT":0}]
