EUTELSAT 9B             
1 41310U 16005A   26063.37683795  .00000050  00000+0  00000+0 0  9999
2 41310   0.0258  60.9038 0004288 258.7516 347.1290  1.00274710 37062
EUTELSAT 65 WEST A      
1 41382U 16014A   26063.15044815 -.00000289  00000+0  00000+0 0  9993
2 41382   0.0706  41.1938 0002240 297.2475 172.4239  1.00272377 36481
EUTELSAT 117 WEST B     
1 41589U 16038B   26063.36225455 -.00000023  00000+0  00000+0 0  9998
2 41589   0.0384 342.0206 0000210 243.2130 310.2920  1.00271881 35619
EUTELSAT 172B           
1 42741U 17029B   26063.60878337 -.00000017  00000+0  00000+0 0  9993
2 42741   0.0195 153.4153 0000134 132.6433 267.4342  1.00272242 32695
EUTELSAT 7C             
1 44334U 19034B   26063.37683795  .00000036  00000+0  00000+0 0  9997
2 44334   0.0721 179.7683 0003295 150.5272 334.4562  1.00270313  5786
EUTELSAT 5 WEST B       
1 44624U 19067A   26063.32128137 -.00000054  00000+0  00000+0 0  9995
2 44624   0.0952 310.1510 0003197  41.8937 280.6517  1.00272617 23382
EUTELSAT KONNECT        
1 45027U 20005B   26063.37683795  .00000037  00000+0  00000+0 0  9998
2 45027   0.0683  97.6427 0001045 224.8196 342.5052  1.00271214 23288
EUTELSAT QUANTUM        
1 49056U 21069B   26063.29905912  .00000114  00000+0  00000+0 0  9990
2 49056   0.0446 310.8550 0002909  28.0604 338.4798  1.00272176 16872
EUTELSAT KONNECT VHTS   
1 53765U 22110A   26063.38239013  .00000007  00000+0  00000+0 0  9993
2 53765   0.0570 103.2636 0003303 218.7695 340.4535  1.00279396  5789
EUTELSAT HOTBIRD 13F    
1 54048U 22134A   26063.73698909  .00000076  00000+0  00000+0 0  9992
2 54048   0.0582 295.6226 0002058  63.0008  82.1542  1.00271844 12329
EUTELSAT HOTBIRD 13G    
1 54225U 22146A   26063.73698895  .00000077  00000+0  00000+0 0  9997
2 54225   0.0464 229.1466 0001916 313.2067 258.4320  1.00272135  6419
EUTELSAT 10B            
1 54259U 22157A   26063.67435465  .00000057  00000+0  00000+0 0  9999
2 54259   0.0573 102.2620 0001370  13.0814 299.7940  1.00268517 11971
EUTELSAT 36D            
1 59346U 24059A   26063.36572510  .00000144  00000+0  00000+0 0  9990
2 59346   0.0209 138.5839 0000242 198.5441 352.4912  1.00270962  7096
